STARLINK-36676
1 67912U 26036J   26061.16668981 -.01445023  00000+0 -57676-2 0  9995
2 67912  42.9952 295.8887 0001715 275.3283 271.8878 15.88478020  2432
